Park Name,Address,City,State,Postal Code,Country,Phone,Website,unnamed (1)
Action City Family Fun Center,2402 Lorch Avenue,Eau Claire,Wisconsin,54701,United States,715-852-6000,http://www.actioncityfun.com,
Activate Trampoline Park,69-71 Haviland Road,Wimborne,Dorset,BH21 7PY,United Kingdom,07850 801832,http://www.activatetrampolinepark.co.uk,Ferndown Industrial Estate
Adrenaline City,5402 4th Street,Lubbock,Texas,79416,United States,(806) 687-4242,http://www.goadrenalinecity.com,Ste. 3
Adrenaline International,Unit 1 Liversedge Business Park,Liversedge,,WF15 6JQ,United Kingdom,01924 402801,http://www.adrenaline-international.co.uk,22-26 Halifax Road
Adventure Air Sports,325 Ernest W Barrett Parkway,Kennesaw,Georgia,30144,United States,865-740-6202,http://www.adventureairsports.com,Suite 3500
Aerosports Trampoline Parks,39729 Avenida Acacias,Murrieta,California,92563,United States,(951) 696-5867,http://www.aerosportsparks.com,
Air Arena Chichester,Chichester Gate,Chichester,West Sussex,PO19 83L,United Kingdom,1243940530,http://www.airarena.co.uk,Terminus Road
Air Extreme,Air Extreme,Roundswell,,EX31 3TA,United Kingdom,1270000000,http://www.air-extreme.co.uk,1 Centurion Court
Air Unlimited Liverpool,"Unit 4, Compass East, Speke",Liverpool,Merseyside,L241YH,United Kingdom,7750000000,http://airunlimited.co.uk,
AirHop - Bristol,Unit 5 Britannia Road,Bristol,,BS34 5TA,United Kingdom,3302233333,http://airhoptrampolinepark.com,Patchway
AirHop - Dusseldorf,Fichtenstr. 47-49,,NRW,40233,Germany,,http://airhoptrampolinepark.com,
AirHop - Essen,Am Zehnthof 194,Essen,NRW,45307,Germany,,http://airhoptrampolinepark.com,
AirHop - Gothenburg,"Torpavallsgatan 4C, 416 73",Goteborg,,416 73,Sweden,,http://airhoptrampolinepark.com,
AirHop - Guildford,12 Midleton Industrial Estate Road,Surrey,,GU2 8XW,United Kingdom,(148) 350-4750,http://airhoptrampolinepark.com,Guildford
AirHop - Munchen,Steinerne Furt 76,Augsburg,,86167,Germany,4982156783804,http://airhoptrampolinepark.com,
AirHop Uppsala,Rapsgatan 8,Uppsala,,75450,Sweden,,http://www.airhoppark.de,
AirSpace - Stevenage,Stevenage Leisure Park,Stevenage,,SG12UA,United Kingdom,,,
Airspace - Wolverhampton,Well Lane,Wednesfield,,WV111TB,United Kingdom,,,
Altimate Air - North Versailles,9111 Cross Park Drive,Knoxville,Tennessee,37923,United States,865-692-4061,,Suite E 275
Altitude - Fort Worth,5650 Kroger Drive,Fort Worth,Texas,76244,United States,817-629-3305,http://www.altitudetrampolinepark.com,
Altitude Trampoline Park - Billerica,700 Boston Road,Billerica,Massachusetts,1821,United States,(978) 663-5867,http://www.altitudebillerica.com,
AltitudeTrampoline Park of Louisville,4420 Dixie Hwy,Louisville,Kentucky,40216,United States,(502) 449-9952,,Suite 220
Apex Adventure Plex Richmond,110-3810 Jacombs Road,Richmond,British Columbia,V6V 1Y6,Canada,604-394-2013,,
Apex Trampoline Park Saskatoon,100 - 3910 Burron Avenue,Saskatoon,Saskatchewan,S7P0E3,Canada,306-374-5867,http://www.ThePlex.ca,
Atomic Trampoline Fun Center,1604 Village Market Blvd Ste 110,Leesburg,Virginia,20175,United States,,,
AZ Air Time,3931 W. Costco Drive,Tucson,Arizona,85741,United States,(520)219-8486,http://www.azairtime.com,
AZ Air Time Tucson,3931 W Costco Drive,Tucson,Arizona,85741,United States,(520)219-8486,http://www.azairtime.com,
Base Jump Trampoline Park,26a Brook Road,,Essex,SS6 7XR,United Kingdom,01268 777700,http://www.basejump.co.uk,Rayleigh
Better Extreme - Barking,BArking Sporthouse and Gym,,Dagenham,RM8 2JR,United Kingdom,7970000000,http://www.betterextreme.org.uk,Lodge Avenue
BigAir - Laguna Hills,23251 Avenida de la Carlota,Laguna Hills,California,92653,United States,,http://bigairoc.com,
Boing,"Ramon Mart Alsina, 12-14",Badalona,,8911,Spain,34630042256,https://boingparks.com,
Boing Zone Ltd,E3 Mill Race Lane,Stourbridge,West Midlands,DY8 1JN,United Kingdom,,http://www.boingzone.co.uk,
Boost Trampoline Park,Unit A Fairground Way,Northampton,,NN3 9HU,United Kingdom,,http://www.boosttrampolineparks.co.uk,Riverside Business Park
Bounce Glen Iris,2 Weir St,Glen Iris,Victoria,3146,Australia,1300 000 540,http://www.bounceinc.com.au,
Bounz,Willinklaan 3-5,Amsterdam,,1067 SL,Netherlands,(020) 611-4481,http://bounz.nl,
Cool Springz Trampoline Park,4320 Yale Blvd NE,Albuquerque,New Mexico,87107,United States,(505) 345-5867,http://www.coolspringz.com,
Craigs Cruisers,5730 Clyde Park Avenue SW,Wyoming,Michigan,49509,United States,2320000000,http://www.craigscruisers.com,
Defy Gravity,10421 Portal Road,LaVista,Nebraska,68128,United States,(402) 430-2510,http://www.DefyGravityUSA.com,
Defy Gravity - Lincoln,345 Sporting Village Dr.,Lincoln,Nebraska,68502,United States,402-817-6900,http://www.defygravitylincoln.com,
Extreme Air,10699 US Route 60,Ashland,Kentucky,41102,United States,6066154120,,Suite 970
Flight Fit N Fun LLC,1041 Washington Pike,Bridgeville,Pennsylvania,15017,United States,,http://flighttrampolinepark.com,Suite 200
Flight Trampoline Park - Albany,30A Post Rd.,Colonie,New York,12205,United States,518-952-0433,http://flighttrampolinepark.com,
Flight Trampoline Park - Springfield,7200 Fullerton Rd.,Springfleld,Virgina,22150,United States,,http://flighttrampolinepark.com,
Flip Dunk Sports,"1515 E. Bethany Home Road, Ste. 160",Phoenix,Arizona,85014,United States,(602) 277-0067,http://www.flipdunksports.com,
Flip Out Brent Cross,"Unit 7, Geron Way",London,,NW2 6LW,United Kingdom,2080000000,http://www.flipout.co.uk/brent-cross,Staples Corner Retail Park
Flip Out Bristol,"Unit 9K, Aldermoor Way",Bristol,South Glos,BS30 7DA,United Kingdom,1180000000,http://www.flipout.co.uk,Longwell Green
FlipOut Wandsworth,FlipOut Wandsworth,London,,SW18 4LZ,United Kingdom,0203 0268440,"http://www.flipout.co,.uk",Garratt Lane
Flip'z Trampoline Park,910 S.E. Military,San Antonio,Texas,78214,United States,210-927-1234,,Suite 123
Flying Squirrel Calgary,572 Aero Drive North East,Calgary,Alberta,T2E 6K2,Canada,(403)-879-2148,http://www.FlyingSquirrelSports.com,Unit #105
Flying Squirrel Guatemala,Kilometro 22.5 Carretera a El Salvador,Fraijanes,Guatemala City,,Guatemala,+502 6635 2121,http://www.FlyingSquirrelSports.com,Centro commercial Deco City
Flying Squirrel Hamilton,1550 Upper James Street,Hamilton,Ontario,L9B 2L6,Canada,+1 289-309-5332,http://www.FlyingSquirrelSports.com,
Flying Squirrel Missoula,2501 Brooks St,Missoula,Montana,59801,United States,,http://www.FlyingSquirrelSports.com,
Flying Squirrel Ottawa,1901 Cyrville Road,Gloucester,Ontario,K1B 3V5,Canada,+1 343-883-1092,http://www.FlyingSquirrelSports.com,
Flying Squirrel South Calgary,5342 72 Ave SE,Calgary,Alberta,T2C 4X5,Canada,,http://www.FlyingSquirrelSports.com,
Flying Squirrel Victoria,808 Viewfield Rd,Victoria,British Columbia,V9A 4V1,Canada,+1 778-404-1778,http://www.FlyingSquirrelSports.com,
Flying Squirrel Winnipeg,1250 St. James Street,Winnipeg,Manitoba,R3H OL1,Canada,,http://www.FlyingSquirrelSports.com,
Franklin Fun,1024 Georgia Road,Franklin,North Carolina,28734,United States,828-349-8888,,
Freedome - Cheshire Oaks,"Unit 1B, Coliseum Leisure Park",Ellesmere Port,Cheshire,CH659HD,United Kingdom,,,Cheshire Oaks
Freedome - Norway,Ryfylkegaten 13,4014 Stavanger,,4014,Norway,4740754788,,
Freestyle Trampoline Parks Ltd,Lowmoor Road,Nottingham,Nottinghamshire,NG17 7LJ,United Kingdom,1623709512,http:// www.freestyle-uk.com,Kirkby In Ashfield
Fun Galaxy Ashbourne,Unit 21 Ashbourne Retail Park,Ashbourne,,,Ireland,35300000000,http://www.fungalaxy.ie,
"Gecko Parx, LLC",3305 Corporate Ave,Weston,Florida,33331,United States,(954) 526-8180,,
Get Air - Poway,12160 Community Road,Poway,California,92064,United States,(858) 848-1247,http://www.getairpoway.com,
Get Air - Temecula,"16201 Ynez Road, Ste. 101",Temecula,California,92591,United States,(951) 239-4247,http://www.getairtemecula.com,
Get Air - Tucson,330 S Toole,Tucson,Arizona,85701,United States,801-290-6987,,
Get Air Hang Time,1340 Sandhill Road,Orem,Utah,84058,United States,(801) 784-6100,http://www.getairhangtime.com,
Gravity - Norwich,Koblenz Ave.,Norwich,Norfolk,NR1,United Kingdom,,http://www.gravity-uk.com,
Gravity - Xscape Yorkshire,Xscape Yorkshire - Gravity,Castleford,Yorkshire,WF10 4TA,United Kingdom,01977 529920,http://www.gravity-uk.com,Unit 28 Colorado Way
Gravity Bluewater,Bluewater Shopping and Leisure Centre,Dartford,Kent,DA99ST,United Kingdom,,http://www.gravity-uk.com,"Dartford, Greenhithe"
Gravity Edinburgh,6 Fountain Park,Edinburgh,Edinburgh,EH11AF,United States,,http://www.gravity-uk.com,130 Dundee St.
Gravity Force - Camberley,Unit 6/7 Admiralty Way,Camberley,Surrey,GU15 3DT,United Kingdom,+44 7595429790,http://www.gravityforce.co.uk,
Gravity Glasgow,22 Soar at Intu Braehead,Renfrew,Glasgow,PA48XQ,United States,,http://www.gravity-uk.com,Kings Inch Road
Gravity- Maidstone,Barker Rd.,Maidstone,Maidstone,ME168SF,United Kingdom,,http://www.gravity-uk.com,Lockmeadow Entertainment Centre
Gravity Trampoline Park,1201 S Reed Rd,Kokomo,Indiana,46902-1904,United States,,http://www.gravitykokomo.com,
Hangar Trampoline Park,12125 Day Street A201,Moreno Valley,California,92557,United States,(951) 682-5867,,
Helium Trampoline Park,16235 W Beloit Rd,New Berlin,Wisconsin,53151-7323,United States,8472761030,http://www.heliumpark.com,
House of Air - Carlsbad,6133 Innovation Way Suite 102,Carlsbad,California,92009,United States,760-201-1313,http://www.houseofair.com,
House of Air - San Francisco,926 Mason Street,San Francisco,California,94129,United States,(415) 345-9675,,
House Of Play,Unit 13 Ogden Road,1,South Yorkshire,DN2 4SQ,United Kingdom,01302 847744,http://www.go-bounce.com,Shaw Lane Estate
I JUMP TRAMPOLINE PARKS LTD,Old Mill Lane,Mansfield,Nottinghamshire,NG19 9AL,United Kingdom,01623 705909,http://WWW.I-JUMP.CO.UK,
iBounce Trampoline Park,Unit 1 Milber trading estate,Newton Abbot,,TQ12 4SG,United Kingdom,01626 332241,http://i-bounce.co.uk,
IsleJump,Unit D1 Spithead Business Park,Isle of Wight,Isle of Wight,P036 9PH,United Kingdom,,,Newport Road
i-Trampoline Hawaii,94-157 Leoleo St.,Waipahu,Hawaii,96797,United States,(808) 395-5707,http://www.itrampolinehawaii.com,
JOA Leisure Ltd.,89A Southcroft Road,Glasgow,Lanarkshire,G73 1UG,United Kingdom,,http://flipout.co.uk/glasgow,
JUMP,48 Arrenway Drive,Auckland,,3210,New Zealand,,http://www.jumpwithus.co.nz,Mairangi Bay
"Jump 360 Edmonton, Inc.",13535 156th Street,Edmonton,Alberta,T5V 1R9,Canada,,http://Www.Jump360.ca,
"Jump 360 Kamloops, Inc.","380, 945 Columbia Street W",Kamloops,British Columbia,V2C 1L5,Canada,471-5867,,
"Jump 360 Red Deer, Inc",6833 66 Street,Red Deer,Alberta,T4P 3T5,Canada,391-3364,http://www.jump360.ca,
"Jump America, LLC",880 Lakeside Drive,Gurnee,Illinois,60031,,(224) 325-5867,http://www.jumpamerica.com,
Jump Giants,Unit 4 Stanhope Road,Camberley,Surrey,GU15 3DW,United Kingdom,07909 998865,http://www.jumpgiants.com,Stanhope Road
Jump Giants Heathrow,"Unit 2, Coln Industrial Estate",Berkshire,Berkshire,SL3 ONJ,United Kingdom,,,Colnbrook
Jump Giants Loughborough,"Unit 1, Wymeswold Industrial Estate",Loughborough,Leicestershire,LE12 5TR,United Kingdom,,,Burton On the Wolds
Jump Giants Thurrock,"Unit B3-B5, J31 Park",West Thurrock,Essex,RM20 3XD,United Kingdom,07909 98865,http://www.jumpgiants.com,Motherwell Way
Jump House Berlin - Reinickendor,MiraustraBe 38,Berlin,Berlin,13509,Germany,,,
JUMP House Flensburg,Schleswiger Str. 80,24941 Flensburg,Flensburg,24941,Germany,,,
JUMP House Hamburg - Poppenbuttel,PoppenbÃ¼tteler Bogen 46,22399 Hamburg,Hamburg,,Germany,+4940 â€“ 228660330,,
JUMP House Hamburg GmbH,Kieler Strasse 572,Hamburg,Hamburg,22525,Germany,,,
JUMP House Koeln,Koehlstr. 10,50827 Koeln,Koeln,50827,Germany,,,
JUMP House Leipzig,MarkranstÃ¤dter Str. 8a,04229 Leipzig,Leipzig,,Germany,+49341 â€“ 33975339,,
Jump In - Slough,550 Dundee Road,Slough,Berkshire,SL1 4JU,United Kingdom,,http://www.gojumpin.com,550 Dundee Road
Jump In Aberdeen,Craigshaw Road,Aberdeen,Aberdeen,AB12 3AP,United Kingdom,,,West Tullos Industrial Estate
Jump In Enfield,Unit 22 Lumina Way,Enfield,Enfield,EN1 1FS,United Kingdom,,,
Jump In Shrewsbury,1 Henley Way,Shrewsbury,Shrewsbury,SY1 4YQ,United Kingdom,,,
Jump In Tonbridge,"Unit 2, Ton100 Trading Estate",Tonbridge,Tonbridge,TN9 1RA,United Kingdom,,,Morley Road
Jump In Walsall,Olron House,Walsall,Walsall,WS2 0BX,United Kingdom,,,Bentley Mill Way
Jump In Warwick,Hermes Close,Warwick,Warwick,CV34 6NW,United Kingdom,,,
Jump In/Megajump,Meteor House,Borehamwood,Borehamwood,WD61QQ,United Kingdom,,,Manor Way
Jump Mania Brasil,900 Luiz Eduardo Toledo Prado Avenue,Ribeirao Preto,Sao Paulo,14027250,Brazil,,http://www.jumpmaniabrasil.com.br,
Jump n Play,10442-184 St NW,Edmonton,Alberta,T5S0K3,Canada,,,
Jump Rush,21 Northumberland St,Morecambe,LANCS,LA4 4BU,United Kingdom,,,
Jump Start Adventure Park,3939 County Road B,La Crosse,Wisconsin,,United States,,,
Jump Time - Idaho,1375 Fairview Avenue,Meridian,Idaho,83713,United States,(208) 375-0063,http://www.jumptimeidaho@hotmail.com,
Jump Zone - Sandford,"71-73 Heather Road, Sandyford Industrial Estate",Dublin 18,Dublin 18,XE70,Ireland,,https://jumpzone.ie/,
Jump Zone - Santry,Unit 27 Airways Industrial Estate,Santry,Dublin,X207,Ireland,869000000,,Kilmore Big
Jump@Dexx,Units 1&2 Derwent Way,Rotherham,Rotherham,S63 6EX,United Kingdom,1710000000,http://www.dexx.co.uk,Wath upon Dearne
Jumpin Fun Sports,7321 Trade Court,Sarasota,Florida,34240,United States,941-388-5867,http://jumpinfunsports.com,
JumpStation,Unit 3 Kingsthorne Park,Livingston,West Lothian,EH54 5DB,United Kingdom,01506 537966,http://www.jumpstations.co.uk,
Jumpster Trampoline Park,carretera nacional km 268,Monterrey,Monterrey,,Mexico,8180000000,http://www.jumpster.mx,
Jumpstreet - Allen,2031 W. McDermott Drive,Allen,Texas,75013,United States,,http://www.gotjump.com,
Jumpstreet - Cary,1111 Walnut St,Cary,North Carolina,27511,United States,,http://www.gotjump.com,
Jumpstreet - Cedar Park,12617 Ridgeline Blvd.,Cedar Park,Texas,78613,United States,(512) 506-8583,http://www.gotjump.com,
Jumpstreet - Chandler,455 E. Warner Road,Chandler,Arizona,85225,United States,(480) 270-8008,http://www.gotjump.com,
Jumpstreet - Colleyville,5615 Colleyville Blvd.,Colleyville,Texas,76034,United States,,http://www.gotjump.com,
Jumpstreet - Dallas,11250 N. Central Expressway,Dallas,Texas,75243,United States,,http://www.gotjump.com,
Jumpstreet - Glendale,5665 W. Bell Road,Glendale,Arizona,85308,United States,(602) 889-0081,http://www.gotjump.com,
Jumpstreet - Greenwood Village,7969 E. Arapahoe Road,Greenwood Village,Colorado,80112,United States,(702) 523-9283,http://www.gotjump.com,
Jumpstreet - Jacksonville Beach,210 Beach Blvd STE 1210,Jacksonville Beach,Florida,32250,United States,,http://www.gotjump.com,
Jumpstreet - Lakewood,"14500 W. Colfax Avenue, Ste. E2",Lakewood,Colorado,80401,United States,,http://www.gotjump.com,
Jumpstreet - Littleton,10081 W. Bowles Avenue,Littleton,Colorado,80127,United States,,http://www.gotjump.com,
Jumpstreet - Plano,6505 W. Park Blvd.,Plano,Texas,75093,United States,(972) 378-5867,http://www.gotjump.com,
Jumpstreet- Lawrenceville,5900 Sugar Loaf Parkway #325,Lawrenveville,Georgia,30043,United States,,http://www.gotjump.com,
Jumpstreet-Franklin,1735 Galleria Blvd. Ste. 2,Franklin,Tennessee,37067,United States,,http://www.gotjump.com,
Jumpstreet-Goodlettsville,1000 Rivergate Pkwy. #2030,Goodlettsville,Tennessee,37072,United States,,http://www.gotjump.com,
Jumpstreet-Katy,5000 Katy Mills Circle #743,Katy,Texas,77494,United States,,http://www.gotjump.com,
Jumpstreet-Murfreesboro,1952 Old Fort Pkway. Suite 6,Murfreesboro,Tennessee,37129,United States,,http://www.gotjump.com,
Kick Air Manchester,61 Great Ducie Street,Manchester,Manchester,M3 1RR,United Kingdom,0161 696 9991,http://www.gotjump.com,
Knuckleheads Trampoline Park,150 Gasser Rd,Wisconsin Dells,Wisconsin,53965,United States,6082544900,http://www.knuckleheadspark.com,PO Box 298
Launch Trampoline Park - Warwick,91 Brainard Rd,Hartford,Connecticut,6114,United States,860-246-5867,http://www.launchct.com,
Launching Pad Trampoline Park,6421 Hillburn Drive,Raleigh,North Carolina,27613,United States,919-390-6700,http://www.launchingpadraleigh.com,
Limitless Trampoline Park,"Unit E, SA1 Business Park,",Swansea,Swansea,SA1 8PB,United Kingdom,01792 346149,http://www.limitlesstp.co.uk,"Langdon Road,"
Limitless Trampoline Park,"Unit 82, Leisure at Cwmbran",Cwmbran,West Glamorgan,NP44 1QS,United Kingdom,01633 484500,,Glyndwr Road
Mega Jump,Meteor House,Borehamwood,Borehamwood,WD6 1QQ,United Kingdom,,http://www.megajump.co.uk,Manor Way
Mega Trampoline Fun Zone,5593 Northwest Hwy,Crystal City,Illinois,60014,United States,8473311722,,
Northern Air FEC,1600 32nd Avenue S.,Grand Forks,North Dakota,58201,United States,(701) 757-4386,http://www.northernairffc.com,
Oxygen Freejumping - Leeds,Cardigan Fields Leisure Park,Leeds,Leeds,LS4 2DG,United Kingdom,,http://www.oxygenfreejumping.co.uk,Kirkstall Road
Oxygen Freejumping Acton,Kendal Avenue,London,London,W3 0AF,United Kingdom,,http://www.oxygenfreejumping.co.uk,"Unit 15, Vision LondonIndustrial Park"
Oxygen Freejumping Croydon,"Unit 5, The Colonnades",Croydon,Croydon,CR0 4RQ,United Kingdom,,http://www.oxygenfreejumping.co.uk,Purley Way
Oxygen Freejumping Derby,Derwent Parade,Derby,Derby,DE24 8BW,United Kingdom,0203 846 1386,http://www.oxygenfreejumping.co.uk,Pride Park
Oxygen Freejumping Manchester,Lucozade Powerleague,Manchester,Manchester,M17 8DD,United Kingdom,0203 846 1386,http://www.oxygenfreejumping.co.uk,Trafford Way
Oxygen Freejumping Southampton,"Unit G, Antelope Park",Southampton,Southampton,SO19 8NE,United Kingdom,,http://www.oxygenfreejumping.co.uk,"Unit G, Antelope Park"
Planet Bounce,153-155 Huntingdon Street,Nottingham,Nottingham,NG1 3NL,United Kingdom,01159 881745,http://planetbouncetrampolinepark.com/,
Planet Bounce - Northamptonshire,Unit B Rockingham Lesiure Park,Northamptonshire,Northamptonshire,NN17 4Ap,United Kingdom,,http://planetbouncetrampolinepark.com/,
Rare Air - Chico,1090 E 20th St,Chico,California,95928,United States,,http://rareairpark.com,
Rare Air Park - Redding,3625 Old 44 Drive,Redding,California,96003,United States,,http://www.rareairpark.com,
Rebound Trampoline Park,Smisby Road,Leicestershire,Leicestershire,LE65 2UE,United Kingdom,44 (0) 1530 567045,http://www.reboundashby.co.uk,Ashby de la Zouch
Rebound World - Montpellier (FR),1 Allee D'Ulysse,Montpellier,Montpellier,34000,France,+33(0)499645449,http://www.rebound.world,
Rebounderz - Manassas,7403 Gateway Court,Manassas,Virginia,20109,United States,,http://www.rebounderz.com,
Rebounderz Franchise and Development,605 Hickman Circle,Sanford,Florida,23602,United States,321-222-1300,http://ww.rebounderznewportnews.com,
Red Kangaroo Trampoline Park,2 Dabell Avenue,Nottingham,Nottinghamshire,NG6 8WA,United Kingdom,03333 445 933,http://www.redkangaroo.co.uk/parks/nottingham,Blenheim Ind Estate
Red Kangaroo Trampoline Park - Reading,8 Bridgewater Close,Reading,Berkshire,RG301JT,United Kingdom,03333 445 933,http://www.redkangaroo.co.uk/parks/reading,
Rockin' Jump - Bangkok,428 Ratchadapisek-rama 3 Rd.,Bangkok,Bangkok,10120,Thailand,67000000000,http://www.rockinjump.com,
Rockin' Jump - Carol Stream,485 Mission St.,Carol Stream,Illinois,60188,United States,630-220-6106,http://www.rockinjump.com,
Rockin' Jump - Dublin,"5875 Arnold Road, #100",Dublin,California,94568,United States,415-305-0117,http://rockinjump.com/trampoline-park-franchise/,
Rockin' Jump - Gilroy,8787 San Ysidro Ave,Gilroy,California,95020,United States,(408) 713-5925,http://www.rockinjump.com,
Rockin' Jump - Merced,1230 W Main St,Merced,California,95340,United States,(209) 500-1355,http://www.rockinjump.com,
Rockin' Jump - Myrtle Beach,2200 N. Oak Street,Myrtle Beach,South Carolina,29577,United States,843-242-3264,http://www.rockinjump.com,
Rockin' Jump - Roseville,384 N Sunrise Ave,Roseville,California,95661,United States,975-202-6734,http://www.rockinjump.com,
Rockin' Jump St. Louis,61 North Central,O'Fallon,Missouri,63366,United States,636 - 321-4024,http://o'fallon.rockin'jump.com,
Rockin' Jump Buffalo Grove,950 Busch Pkwy,Buffalo Grove,Illinois,60089,United States,224-676-0660,http://www.rockinjump.com,
Rockin Jump Mt. Kisco,333 N. Bedford Road,Mount Kisco,New York,10549,United States,(203) 914-1680,http://www.rockinjump.com,Suite 225
Rockin Jump Shrewsbury,7375 Watson Road,Shrewsbury,Missouri,63119,United States,314-384-4075,http://www.rockinjump.com,
Rockin' Jump Trampoline Park Fort Lauderdale,5300 N. Powerline Road,Fort Lauderdale,Florida,33309,United States,954-656-1241,http://ftlauderdale.rockinjump.com,
Rockin' Jump Westerville,1220 County Line Road,Westerville,Ohio,43081,United States,6140000000,http://westerville.rockinjump.com,
Rockin' Jump Williamstown,1219 S. Black Horse Pike,Williamstown,New Jersey,8094,United States,(856) 631-1184,http://williamstown.rockinjump.com,Suite 1B
Rush Trampoline Parks Ltd,Unit 6 Avery Dell Industrial Estate,Birmingham,West Midlands,B30 3DZ,United Kingdom,1217268500,http://www.rushuk.com,Lifford Lane
Rush UK,Lexmark House,High Wycombe,High Wycombe,HP12 3TA,United Kingdom,,http://www.rushuk.com,
Ryze Edinburgh Ltd.,Ryze Adventure Parks Midlothian,Dalkeith,Dalkeith,EH22 4AD,United Kingdom,0131 290 2336,http://www.ryzeedinburgh.com,Unit 23 Mayfield Industrial Estate
Ryze Glasgow Ltd.,c/o Ryze Adventure Parks Midlothian,Dalkeith,Midlothian,EH22 4AD,United Kingdom,0131 290 2336,http://www.ryze.com,23 Mayfield Industrial Estate
Sevier Air,266 Collier Drive,Sevierville,Tennessee,37862,United States,304-687-6770,http://www.sevierair.com,
Shockwave Trampoline Park,3101 Penland Parkway,Anchorage,Alaska,99508,United States,,,M-8
Sky High Sports,490 Hot Springs Rd,Carson City,Nevada,89706,United States,(408) 507-0921,,
Sky High Sports - Burlingame,1524 Rollins Road,Burlingame,California,94010,United States,(650) 342-5867,http://bur.skyhighsports.com,
Sky High Sports Charlotte Trampoline Park,601 N Polk St Suite L,Pineville/Charlotte,North Carolina,28134,United States,704-889-5867,http://clt.skyhighsports.com,
Sky High Sports - Concord,1631 Challenge Drive,Concord,California,94520,United States,(925) 682-5867,http://www.jumpskyhigh.com,
Sky High Sports - Houston,10510 Westview Drive,Houston,Texas,77043,United States,(713) 464-5867,http://hou.jumpskyhigh.com,
Sky High Sports - Naperville,2244 Corporate Lane,Naperville,Illinois,60563,United States,(630) 717-5867,http://nap.skyhighsports.com,
Sky High Sports - Nashville,5270 Harding Pl.,Nashville,Tennessee,37217,United States,(615) 366-4252,http://www.jumpskyhigh.com,
Sky High Sports - Niles,6424 Howard Street,Niles,Illinois,60714,United States,(847) 801-5867,http://nil.jumpskyhigh.com,
Sky High Sports - Portland,1131 SW Greenburg Rd.,Tigard,Oregon,97223,United States,,http://www.por.skyhighsports.com,
Sky High Sports - Sacramento,"11327 Folsom Blvd, #160",Rancho Cordova,California,95742,United States,(916) 853-8567,http://www.jumpskyhigh.com,
Sky High Sports - Santa Clara,2880 Mead Avenue,Santa Clara,California,95051,United States,(408) 492-1139,http://www.jumpskyhigh.com,
Sky High Trampoline Park,D1/D2 Meridian Industrial Estate,Peacehaven,East Sussex,BN10 8JQ,United Kingdom,+44(0)7802839984,http://www.skyhightrampolinepark.co.uk,Newton Road
Sky Zone - Columbus,"459 Orange Point, Ste. E",Lewis Center,Ohio,43035,United States,(614) 302-6093,http://www.skyzone.com,
Sky Zone - Fenton,631 Gravois Rd.,Fenton,Missouri,63026,United States,636-364-4444,http://www.skyzone.com,
Sky Zone - Fort Wayne,401 Fernhill Avenue,Fort Wayne,Indiana,46805,United States,260-483-5867,http://www.skyzone.com,
Sky Zone - Ft. Lauderdale,1834 Southwest 2nd Street,Pompano Beach,Florida,33069,United States,945-417-3999,http://www.skyzone.com,
Sky Zone - Kennesaw,"1650 Airport Road, Suite 105",Kennesaw,Georgia,30144,United States,(678) 414-6380,http://www.skyzone.com,
Sky Zone - Miami,5450 NW 82nd Avenue,Doral,Florida,33166,United States,(305) 432-4911,http://www.skyzone.com,
Sky Zone - Toledo,1600 Albon Rd.,Holland,Ohio,43528,United States,(419)491-1194,http://www.skyzone.com,
Sky Zone Australia,Sydney Corporate Park,Alexandria,New South Wales,2015,Australia,61300000000,http://www.skyzone.com,"Building 3, 160 Bourke Road"
Sky Zone Fairview Heights,10850 Lincoln Trail,Fairview Heights,Illinois,62208,United States,,http://www.skyzone.com,
Sky Zone Madison,2134 West Beltline,Madison,Wisconsin,53713,United States,,http://www.skyzone.com,
Sky Zone -Milwaukee,W229 N1420 Westwood,Waukesha,Wisconsin,53186,United States,954.417.3999,http://www.skyzone.com,
Sky Zone Mishawaka,5604 Grape Road,Mishawaka,Indiana,46545,United States,574.208.5005,http://www.skyzone.com,
Sky Zone Toronto,1A-45 Esander Drive,Toronto,Ontario,M4C 4G5,Canada,416-421-4567,http://www.skyzone.com/toronto,
SkyLine Trampoline Park,Highclere business park,Inverurie,Aberdeenshire,AB54 5QW,United Kingdom,,,
Soar Trampoline Park,Unit 5 & 6 Medway Distribution Centre,Gillingham,Kent,ME8 0RT,United Kingdom,01634 790863,http://www.soartrampolinepark.co.uk,Courteney Road
Spring City,Units 1 & 2 Glacier Buildings,Liverpool,Merseyside,L3 4BH,United Kingdom,0151 958 0393,http://www.springcity.co.uk,Harrington Road
Sprung Raum Temephof GmbH,Malteser Strasse 139-142,Berlin,DE,12277,Germany,,http://www.sprungraum.de,
The Factory,100 Thomas Drive,Gadsden,Alabama,35904,United States,(256) 312-8974,http://www.thefactorygadsden.com,
Tiger Jump Trampoline Park,Zum Aquarium 2,Oberhausen,Oberhausen,46047,Germany,,http://www.tigerjump.de,
TopJump,3735 Parkway,Pigeon Forge,Tennessee,37863-3813,United States,865-366-3400,http://topjump.com,
Upbeat Recreation Centre,"Plot 11, Block 12A, Admiralty Rd",Lagos State,Lagos,,Nigeria,2341712008,http://upbeatcentre.com,Lekki Phase 1
Up Down Trampoline Park,101 South 41st Avenue,Hattiesburg,Mississippi,39402,United States,601-909-9060,http://updowntrampolinepark.com,
Urban Air Southlake,325 Commerce,Southlake,Texas,76092,United States,972-965-7327,,
Urban Motion - Morumbi Town,Av Giovanni Gronchi,Sao Paulo,Sao Paulo,05742-002,Brazil,,,5930 - Loja 133
Urban Motion - Santo Amaro,"R. Dr. Rubens Gomes Bueno, 288",Sao Paulo,Sao Paulo,04730-000,Brazil,,,
Velocity Air Sports - Jacksonville,7022 A C Skinner Parkway,Jacksonville,Florida,32256,United States,904-551-4035,http://www.velocityairsports.com,
Xdrenaline,1611 Roswell Rd,Marietta,Georgia,30062,United States,7706041367,http://www.xdrenaline.com,
xjump,Milerparken 10,Copenhagen,Copenhagen,2740,Denmark,4573709969,http://www.xjump.dk,Skovelunde
Yoump - Borlange,Hantverkargatan 22,781 71 BorlÃ¤nge,781 71 BorlÃ¤nge,781 71,Sweden,+46 21 720 00,http://www.yoump.se,
Yoump - Linkoping,Ã–stra Svedengatan 27,582 73 LinkÃ¶ping,582 73 LinkÃ¶ping,582 73,Sweden,+46 21 720 00,http://www.yoump.se,
Yoump - Orebro,Epiloggatan 2,703 70 Ã–rebro,703 70,,Sweden,,http://www.yoump.se,
